COSMOS 2419 (714)       
1 28915U 05050A   17077.69976361  .00000013  00000-0  00000-0 0  9998
2 28915  65.4527  68.9003 0016839 345.5757 154.9907  2.13110305 87405
COSMOS 2425 (716)       
1 29670U 06062A   17077.95649948 -.00000014  00000-0  10000-3 0  9994
2 29670  65.5048 307.9041 0022697 349.1543  41.9183  2.13104878 79616
COSMOS 2426 (717)       
1 29671U 06062B   17077.82058257 -.00000015  00000-0  10000-3 0  9999
2 29671  65.5214 307.9965 0015898 159.9161 345.8653  2.13102990 79616
COSMOS 2424 (715)       
1 29672U 06062C   17077.37061718 -.00000018  00000-0  10000-3 0  9999
2 29672  65.5065 307.9362 0015369 158.6170 177.5006  2.13102074 79593
COSMOS 2433 (720)       
1 32275U 07052A   17077.91933470  .00000015  00000-0  10000-3 0  9991
2 32275  65.4681  68.6685 0005160 281.8095 272.9433  2.13104802 73129
COSMOS 2432 (719)       
1 32276U 07052B   17077.57361457  .00000012  00000-0  10000-3 0  9991
2 32276  65.4802  68.7503 0013809 328.6203 273.9763  2.13104067 73114
COSMOS 2434 (721)       
1 32393U 07065A   17077.54078922 -.00000017  00000-0  00000-0 0  9996
2 32393  65.1216 307.1115 0004690  85.8041  68.6061  2.13102808 71826
COSMOS 2436 (723)       
1 32395U 07065C   17077.71398560 -.00000015  00000-0  10000-3 0  9992
2 32395  65.1317 307.1501 0016624   3.6540 331.8597  2.13104190 71758
COSMOS 2443 (725)       
1 33379U 08046B   17077.64234317  .00000012  00000-0  00000-0 0  9998
2 33379  65.3984  68.0692 0015862 188.4227  55.5501  2.13102355 65977
COSMOS 2456 (730)       
1 36111U 09070A   17077.42866061  .00000005  00000-0  00000-0 0  9998
2 36111  64.1803 186.6789 0003756 325.3201 273.8409  2.13102796 56485
COSMOS 2457 (733)       
1 36112U 09070B   17077.52938359  .00000004  00000-0  00000-0 0  9999
2 36112  64.1620 186.5963 0006667 160.5304 284.8878  2.13101486 56491
COSMOS 2458 (734)       
1 36113U 09070C   17077.45949557  .00000005  00000-0  10000-3 0  9999
2 36113  64.1677 186.6069 0001831  38.4035  41.2330  2.13102059 56499
COSMOS 2459 (731)       
1 36400U 10007A   17077.64850703  .00000011  00000-0  10000-3 0  9992
2 36400  65.3775  67.7959 0029332 347.9835 221.8336  2.13102238 54847
COSMOS 2461 (735)       
1 36401U 10007B   17077.63479024  .00000011  00000-0  10000-3 0  9995
2 36401  65.3695  67.7748 0005038  44.3079  65.5777  2.13102255 54841
COSMOS 2460 (732)       
1 36402U 10007C   17077.77484850  .00000012  00000-0  10000-3 0  9995
2 36402  65.3608  67.7440 0002822 300.8487 317.9438  2.13101821 54842
COSMOS 2465 (737)       
1 37138U 10041B   17077.71382159 -.00000016  00000-0  00000-0 0  9994
2 37138  64.7187 307.1393 0034050 170.1732 160.9669  2.13104493 50915
COSMOS 2464 (736)       
1 37139U 10041C   17077.19458632 -.00000020  00000-0  00000-0 0  9992
2 37139  64.7277 307.1564 0024869  13.6411 102.9117  2.13102598 50905
COSMOS 2471 (701K)      
1 37372U 11009A   17077.92610198  .00000014  00000-0  00000-0 0  9996
2 37372  65.3577  67.6867 0009114 245.7341 263.3254  2.13107703 47121
COSMOS 2474 (742)       
1 37829U 11055A   17077.62474811  .00000005  00000-0  00000-0 0  9991
2 37829  64.5046 187.1996 0007439 247.3745   2.4084  2.13101859 42488
COSMOS 2476 (744)       
1 37867U 11064A   17077.70804602  .00000004  00000-0  00000-0 0  9996
2 37867  64.4846 187.2708 0016636 242.8975 116.7005  2.13101928 41830
COSMOS 2477 (745)       
1 37868U 11064B   17077.59293417  .00000005  00000-0  00000-0 0  9991
2 37868  64.4919 187.3184 0014511 244.0022 206.4686  2.13101752 41790
COSMOS 2475 (743)       
1 37869U 11064C   17077.66601132  .00000004  00000-0  00000-0 0  9996
2 37869  64.5003 187.3056 0019340 272.5334 190.3472  2.13101846 41801
COSMOS 2485 (747)       
1 39155U 13019A   17077.70205296  .00000004  00000-0  00000-0 0  9994
2 39155  64.6537 187.2807 0016969 237.3040 162.7566  2.13101931 30310
COSMOS 2492 (754)       
1 39620U 14012A   17077.90968448  .00000013  00000-0  10000-3 0  9996
2 39620  65.2502  67.6885 0017373 326.5307 266.7671  2.13103440 23265
COSMOS 2500 (755)       
1 40001U 14032A   17077.82075074  .00000012  00000-0  00000-0 0  9993
2 40001  65.1907  67.6947 0006525 232.7446 155.5351  2.13102828 21487
COSMOS 2501 (702K)      
1 40315U 14075A   17077.36759638 -.00000022  00000-0  00000-0 0  9994
2 40315  64.4533 308.5236 0013470 209.4929 358.4163  2.13098427 17876
COSMOS 2514 (751)       
1 41330U 16008A   17077.70382843  .00000011  00000-0  00000-0 0  9995
2 41330  64.9908  67.8657 0010035 232.1866 246.1565  2.13103385  8648
COSMOS 2516 (753)       
1 41554U 16032A   17077.39116027 -.00000021  00000-0  00000-0 0  9996
2 41554  64.6733 308.2613 0009751 225.5343 266.0461  2.13101636  6249
